{"type":"FeatureCollection","features":[{"type":"Feature","properties":{},"geometry":{"type":"Polygon","coordinates":[[[14.9891958,67.4107332],[12.2345512,67.9223144],[8.5557593,68.2257223],[3.0638541,67.406538],[1.2557683,66.9022168],[-1.7203388,65.6571709],[-9.276643,62.8551811],[-13.9462084,61.2783495],[-18.7563701,59.8269465],[-24.9702754,57.7932147],[-27.1140462,57.1548943],[-28.923034,56.4959767],[-29.7085858,56.0119031],[-30.3926395,55.4477459],[-30.9799102,54.8937905],[-31.3877135,54.3235252],[-32.2761725,52.9755499],[-32.7698798,51.6671125],[-33.0162742,50.6027851],[-33.0162742,49.5659078],[-32.9212144,48.3804145],[-32.2203304,47.2974228],[-31.2101381,45.8914429],[-29.816601,44.6176691],[-28.500934,43.4584671],[-26.8622238,42.3315126],[-25.3585148,40.5698557],[-23.3982496,38.9168132],[-21.4379126,37.4254799],[-19.1685322,36.0567218],[-17.3806841,35.0333649],[-15.2142858,34.2373175],[-13.2582174,33.4687694],[-11.2000659,32.7706893],[-10.2715338,32.6225136],[-9.2198841,32.7464315],[-7.6844756,33.0113899],[-4.7428605,33.6900385],[-0.3464653,34.1460724],[4.1150279,34.3068452],[8.4463251,34.0322928],[10.9192974,34.0322928],[11.3644865,33.2109355],[12.4674296,32.7912639],[13.274212,32.9456609],[15.2554246,32.4385805],[15.4290361,31.8766128],[15.7149843,31.3984067],[17.0426001,31.1714926],[18.0693103,30.8407344],[18.6364963,30.444692],[19.1224375,30.2735467],[19.4050767,30.3377613],[19.6282185,30.4703368],[19.9688234,30.717899],[20.1488643,31.0753139],[20.1389471,31.2153607],[20.0348223,31.33826],[19.8959748,31.756607],[20.0645666,32.2276182],[20.9472017,32.7420908],[21.3785833,32.7962895],[21.7504922,32.9670254],[23.1488127,32.6335858],[23.1587165,32.2863213],[23.5157479,32.1814652],[24.0909436,32.0386632],[24.4231518,32.000823],[24.7107497,32.0260501],[25.028099,31.9503482],[25.2016663,31.5497806],[25.4148685,31.5075125],[25.9454538,31.625811],[27.026425,31.4059985],[27.3387985,31.3890662],[27.487556,31.2068755],[27.8991356,31.2196002],[28.0082245,31.0922991],[28.4445798,31.0922991],[29.0783164,30.8231961],[29.4809102,30.9265499],[30.0561058,31.3382574],[31.0775893,31.6258127],[31.5734476,31.4525421],[31.8759212,31.5244251],[32.1585605,31.2959003],[32.371759,31.245036],[32.4484203,31.3130539],[25.7704109,38.0445607],[25.5288017,38.3399451],[25.3543062,38.7389048],[25.2469244,39.2084902],[25.2200795,39.6852815],[25.4482659,40.0869615],[25.8241024,40.3738943],[26.6563118,40.4556518],[27.4616757,40.5577088],[27.6880995,40.5461349],[27.9180486,40.5066997],[28.1304976,40.5063609],[28.3316387,40.5446856],[28.5513442,40.599187],[28.7338292,40.7425388],[29.4235097,41.2810147],[35.511633,45.7855804],[42.0194338,48.8959396],[43.193458,49.3329406],[43.8531226,49.7413623],[44.2918134,50.1406765],[45.2765402,51.2679906],[45.6174143,52.5759589],[45.2007904,54.2241761],[44.5791981,55.3412657],[42.3810005,58.9879512],[41.3754296,59.6853883],[39.8225588,60.1975917],[38.1560633,60.6462728],[35.9237951,60.846745],[33.8762482,60.9787545],[31.5658795,61.2531779],[26.0740324,62.0623066],[22.8546661,62.7118079],[21.5290447,62.9711283],[20.3611119,63.4258204],[19.4083415,63.8988369],[19.080613,63.9944847],[18.7208014,64.0401154],[18.323115,64.060832],[17.9791859,64.0481448],[17.6603043,64.0193835],[17.4330549,63.9612519],[17.1773994,63.9029994],[16.9583605,63.8088692],[16.5335261,63.5593669],[16.2097552,63.2731914],[15.1662448,62.2030454],[14.7394754,61.9463215],[14.5109824,61.8065018],[14.2134744,61.7339731],[13.7050074,61.6902341],[13.147279,61.7124799],[12.1718236,61.8090814],[11.7476396,61.8825641],[11.3551633,62.0120238],[11.2179989,62.1849318],[11.2190532,62.3718345],[11.5139583,62.820785],[13.6670443,65.3724674],[14.1613122,65.6440588],[14.4924663,65.9157632],[15.0554266,66.6154772],[14.9891958,67.4107332]]]}}]}