{"type":"FeatureCollection","features":[{"type":"Feature","properties":{},"geometry":{"type":"Polygon","coordinates":[[[-60.9376401,76.6697069],[-61.3842679,76.6858772],[-61.8773502,76.6813343],[-62.7833811,76.658168],[-63.4946603,76.5924443],[-64.3033154,76.4960653],[-65.4443938,76.3428145],[-66.0685502,76.2333721],[-66.5906762,76.0990529],[-73.0071403,73.753013],[-77.6224814,71.772651],[-89.5395947,65.4242919],[-95.0765974,61.1291163],[-97.0752185,59.0652464],[-97.9952634,57.9205589],[-99.1781783,57.1444666],[-100.4487165,56.6660291],[-101.806878,56.303166],[-103.4717211,55.9368236],[-105.2241907,55.7400243],[-114.906568,55.0433108],[-127.2030084,54.4390916],[-128.149408,54.3868728],[-129.0005794,54.2714842],[-129.91511,54.1353291],[-130.6902962,53.8494687],[-131.3819011,53.5139388],[-131.9591989,53.1535367],[-139.3232988,47.48699],[-147.7114754,39.1936025],[-156.1818889,31.9106817],[-165.4628977,24.714149],[-166.180075,23.8181975],[-166.4722584,22.9649411],[-166.5254142,22.032424],[-166.4081458,20.6165466],[-166.3129172,19.77455],[-166.055757,18.9124501],[-165.8577104,18.5404146],[-165.6223021,18.2678972],[-165.1147304,17.6792738],[-164.1348233,17.103813],[-162.8864035,16.7480526],[-160.4958126,16.2131673],[-157.6005413,15.8046561],[-156.0865003,15.7023985],[-154.6976808,15.715668],[-140.5870468,16.5208436],[-130.6305655,15.8904601],[-123.2999601,15.3636298],[-120.4552512,14.8354599],[-117.5558363,14.1469127],[-116.2889962,13.6975605],[-115.0796453,13.0861588],[-101.3380511,5.1600973],[-99.2612094,4.2211313],[-96.9458219,3.3960406],[-94.5595569,2.7118538],[-92.0858551,2.1880265],[-90.8974644,2.0745006],[-89.9996686,2.0981225],[-88.0150507,2.2397793],[-85.7232896,2.6646641],[-83.4960831,3.1707132],[-81.8958108,3.6083024],[-80.383721,4.19759],[-77.2989893,5.5443581],[-74.3974992,6.9494739],[-73.5791299,7.4384731],[-72.7979592,8.0006092],[-72.1562833,8.3780062],[-71.8121962,8.5251847],[-71.4450463,8.5796491],[-70.91013,8.6355315],[-70.4172485,8.6079481],[-69.3929158,8.5455389],[-67.340778,8.357911],[-66.7717851,8.24918],[-66.2716026,8.0506764],[-65.4093613,7.5552086],[-63.6158959,6.3055648],[-61.0636619,5.087252],[-59.7703019,4.4685974],[-58.2527787,3.9526528],[-57.2870472,3.7117633],[-56.1489101,3.556874],[-55.7350343,3.488025],[-55.5087193,3.2769287],[-55.3223989,2.842802],[-55.368979,2.3309447],[-55.4621392,1.4619341],[-55.5087193,0.4373263],[-55.4776659,0.0336363],[-55.297444,-0.271691],[-55.079743,-0.4810143],[-51.192154,-3.1980895],[-49.7328052,-3.9071159],[-47.9317079,-4.4645839],[-44.5013335,-5.7316436],[-44.1071126,-5.9737947],[-43.7896305,-6.2884153],[-43.4164374,-6.9156325],[-43.0760778,-7.6752362],[-42.5068873,-8.7716579],[-42.1871075,-9.7500415],[-41.9611787,-10.6742269],[-41.9061204,-11.2835059],[-42.0337702,-11.9918938],[-42.1662585,-12.5915967],[-42.4088703,-13.1147525],[-43.4641433,-14.9450836],[-45.7065828,-18.653059],[-46.5020699,-20.1866259],[-47.3334971,-21.3824735],[-48.8044838,-23.0108495],[-49.7318221,-24.0954483],[-53.2174085,-29.3482188],[-53.5371997,-30.5121356],[-53.5691697,-31.6350695],[-53.4412658,-32.4212598],[-53.2074461,-32.9168893],[-53.0712933,-33.0551403],[-52.9049785,-33.1581429],[-52.5408218,-33.3070583],[-41.6062695,-36.1129772],[-35.2340601,-37.4883065],[-24.6098699,-39.6562813],[-22.0392621,-40.2514347],[-19.2240211,-40.6761991],[-17.6145875,-40.8494791],[-16.8544048,-40.9291585],[-16.0457644,-40.9549972],[-13.0775233,-40.991736],[1.7150225,-41.1384864],[16.3862144,-40.7233914],[17.248704,-40.6579859],[18.1075978,-40.5352252],[19.7677606,-40.2159288],[22.612235,-39.4114429],[25.1689862,-38.4471138],[27.2128595,-37.4443134],[28.1774358,-36.8766379],[28.9810607,-36.1264714],[30.3476473,-34.4350769],[31.6181855,-32.6458889],[32.170139,-31.5559857],[32.7087568,-30.2736329],[32.8401171,-29.923948],[32.8991911,-29.5949501],[32.9949565,-28.3887721],[33.0423869,-26.1906317],[33.0171236,-26.1285492],[32.969681,-26.0904216],[32.8362974,-26.0405918],[32.5624367,-25.9550871],[32.2211805,-25.9003446],[30.8606005,-25.6453],[29.5357236,-25.3255086],[28.7477855,-25.0664027],[28.3917176,-25.0209671],[28.0647206,-25.0241585],[27.8478176,-25.0709453],[27.6619007,-25.1831608],[27.4722936,-25.4408218],[27.0468441,-26.0921688],[26.78396,-26.4383931],[26.6147302,-26.5823992],[26.414299,-26.6951909],[23.065864,-28.4765102],[21.8158179,-29.0636506],[21.298567,-29.2467789],[21.0637116,-29.3034567],[20.8041986,-29.3410212],[17.0422953,-29.6166514],[16.9776931,-29.4965816],[16.8057645,-29.1064116],[16.6015104,-28.8673129],[16.5384677,-28.7128327],[15.7094982,-28.0378982],[15.2923314,-27.3275008],[15.2635462,-27.1899625],[15.2257656,-26.9416451],[15.1556016,-26.9095641],[15.0759503,-26.6611036],[15.1696141,-26.6170398],[15.095669,-26.4163351],[14.957638,-26.3213748],[14.9502427,-26.0426719],[14.8444884,-25.7851216],[14.8191064,-25.3867803],[14.8597215,-25.102101],[14.4820426,-24.1484982],[14.496744,-22.6563132],[11.748799,-17.8050055],[11.7848908,-16.604438],[11.7252949,-15.765015],[12.2219273,-14.8261075],[12.4404455,-13.4584557],[13.612461,-12.2965621],[13.8508445,-10.9540081],[12.9637186,-9.1137305],[13.3701224,-8.4501564],[12.2967033,-6.1063267],[12.1414618,-5.5928113],[12.1586207,-5.3195139],[11.7982849,-4.5929945],[11.1205103,-3.9598879],[10.5371095,-3.283471],[9.6102069,-2.4029856],[9.2817121,-1.8944162],[9.2030591,-1.5938241],[9.0179947,-1.3394412],[8.7033851,-0.6409256],[8.8514377,-0.7010678],[9.1012759,-0.6409258],[9.2770884,-0.41423],[9.3141015,-0.1320083],[9.3197159,0.62178],[9.5995978,0.6827404],[9.6023689,0.765867],[9.552489,1.0734201],[9.5220068,1.1232909],[9.375138,1.095585],[9.3525278,1.1868767],[9.7581624,1.8824993],[9.8087883,2.4705282],[9.9388432,3.058547],[9.8731411,3.315482],[9.6561336,3.5284922],[9.6177493,3.6787773],[9.5498393,3.814307],[9.6531806,4.0381784],[9.5321236,3.958652],[9.3844932,3.879118],[8.9711284,4.0882467],[8.9917967,4.2030972],[8.9032185,4.3090979],[8.873694,4.5161081],[8.637484,4.4710153],[8.4691889,4.5328313],[7.8639042,4.5122274],[7.3029086,4.3974235],[6.1041467,4.2649413],[6.0155684,4.294385],[5.9240386,4.3473848],[5.6937351,4.5151803],[5.4693369,4.8653636],[5.2464116,5.4471579],[4.6992518,6.1022397],[3.422394,6.4242843],[1.8351445,6.4831039],[-2.8746918,7.0883396],[-5.6490138,7.7669728],[-7.002102,8.2010473],[-8.0892527,8.869297],[-9.1174933,10.1012726],[-9.9513999,11.3790913],[-10.5816651,12.6400259],[-10.7535519,14.005966],[-10.8108478,14.893708],[-10.6676058,15.6674981],[-10.4670668,16.5482467],[-10.1519351,17.4249883],[-8.6335701,19.5981133],[-7.5946391,20.8908121],[-6.4916578,21.9756098],[-5.3687255,22.7282351],[-3.4176904,23.6955527],[-1.749042,24.3754701],[0.5613944,25.0517513],[2.0503422,25.4001005],[3.6163046,25.6086293],[5.0282379,25.7011924],[6.2606656,25.730625],[9.5720301,25.7055549],[13.8573252,25.6553989],[19.6897611,25.3451607],[22.8699348,24.7795548],[23.5925916,24.6312897],[24.1553036,24.4639969],[24.5677612,24.3172348],[24.8868931,24.0957107],[25.409109,23.5478755],[26.5205901,22.0057614],[28.1726277,19.7432463],[28.7691535,18.6164411],[29.2509628,18.0065625],[31.7086625,15.7660827],[32.8354894,14.9976152],[36.7017609,12.6071096],[40.4301511,10.7170176],[42.8878524,9.573105],[43.5976849,9.2809931],[44.472757,9.0704005],[50.084175,8.1266747],[49.2984978,6.8463101],[48.9914515,5.9937749],[47.6168481,4.0885296],[45.9499879,2.3350557],[44.8685815,1.7662504],[43.779024,0.8883438],[42.5024531,-0.4451043],[41.9901961,-1.0792671],[41.5104702,-1.8270739],[40.6485806,-2.5420814],[40.2257673,-2.7451406],[40.1364702,-3.2435857],[39.9847919,-3.4183035],[39.8506148,-3.7763736],[39.7047716,-4.0673794],[39.4422507,-4.6316242],[39.3751622,-4.6752334],[39.2701541,-4.6810477],[39.2409852,-4.7362816],[39.2409852,-4.8147643],[39.2681778,-4.9548881],[39.2380652,-5.2157532],[39.2681778,-5.4493492],[39.3168213,-5.5729414],[39.3867468,-5.6706201],[39.4801672,-5.752906],[39.5812997,-5.7925548],[50.6987428,-6.573452],[61.3370542,-7.0899641],[65.4157244,-7.079268],[69.1516321,-6.9107108],[73.0855305,-6.6296759],[76.805645,-6.1080867],[77.5478598,-6.021809],[78.2207384,-5.8547568],[78.9069256,-5.5785006],[79.4660206,-5.2632155],[80.1323226,-4.8130066],[80.654699,-4.3607573],[81.0569404,-3.9244071],[81.4188495,-3.3724591],[82.2396036,-1.0818925],[85.3377006,6.8132894],[86.0149613,8.5222808],[86.8762793,10.0946844],[91.9695315,19.2706077],[92.5860719,20.7006943],[92.8369964,21.7726457],[92.8788172,22.3153318],[92.7929997,22.8849534],[92.5482574,23.3178881],[91.9269648,24.0592324],[90.7408609,24.8304967],[89.2542609,25.4832021],[88.2752545,25.8056795],[85.7336389,26.4817446],[81.5728616,27.521758],[71.3191836,29.5793095],[70.3288912,29.6481127],[69.2700213,29.5941937],[67.3211459,29.3479226],[65.5995113,29.0275002],[63.8320116,28.5502586],[63.1754777,28.328529],[62.4974264,27.9997565],[60.9575439,27.0429729],[52.8617397,21.4343097],[51.8558631,21.0241034],[50.6593634,20.7282602],[50.0404545,20.5694612],[49.404039,20.5244757],[47.7700023,20.5066194],[47.0215271,20.5998444],[46.3753482,20.7888202],[45.620532,20.9908067],[45.0182166,21.3677089],[44.6598381,21.5966745],[44.3449992,21.9055223],[44.0854266,22.2437436],[43.8937361,22.6260138],[43.2733331,24.2269963],[42.450265,28.6984608],[42.4826345,29.1164198],[42.5613556,29.6006029],[43.1460975,30.590737],[43.8227677,31.4171645],[44.752048,32.1407747],[48.317347,33.9831657],[49.7670296,34.9146676],[51.4802908,35.5758219],[53.5324389,35.8967467],[55.4150933,35.9881993],[57.5613766,36.3074572],[58.8604429,36.4590275],[59.4062073,36.5928637],[59.9036098,36.7706535],[60.2716382,36.9567953],[60.5736589,37.1824323],[64.167134,41.7359245],[72.197513,48.7493898],[74.256457,49.8461768],[75.4454247,50.3484402],[76.7503892,50.7538044],[77.2210014,50.85193],[77.7075976,50.8903144],[78.7223356,50.9369096],[81.0422725,50.9369096],[99.092842,50.8830642],[104.8984964,51.0474011],[110.3107744,51.3935415],[111.3970565,51.4529595],[112.4833385,51.6189189],[113.2837568,51.7252878],[113.9471925,51.8698443],[116.1210099,52.636015],[118.1185276,53.4972905],[118.9247168,53.9802326],[119.6298473,54.4593549],[120.1692742,54.9696933],[120.534495,55.5325871],[120.755193,56.3251072],[120.6003682,57.1568324],[120.2564104,57.6085159],[119.8006012,58.0072687],[119.4097537,58.2936318],[118.9095488,58.5629139],[118.2879336,58.7797287],[117.5912117,58.9730468],[114.9838509,59.31862],[113.8998849,59.4677804],[112.6694369,59.5569618],[110.7358758,59.7198496],[108.9890899,59.843383],[106.1411491,60.2348386],[104.6715252,60.5513203],[102.7816132,61.0422599],[101.3610631,61.4180837],[99.6032803,61.9323782],[97.7283119,62.4110351],[96.0584183,62.7751337],[94.3885246,63.0950463],[92.953002,63.4245866],[90.3515018,64.1097003],[87.9738035,64.8307673],[86.3006084,65.5208664],[84.9186466,66.0081854],[82.3268693,66.9729888],[79.9078773,67.8359318],[77.3161001,69.0420688],[64.5300599,75.0342125],[56.6683357,77.4522348],[48.9833867,79.8397627],[41.0957195,81.7165586],[38.5288089,82.1423569],[35.8842149,82.4550565],[34.2448353,82.6028058],[32.538336,82.7144915],[29.8947569,82.8042379],[26.9836657,82.8618115],[24.2164395,82.8721209],[20.6932001,82.9043216],[16.042068,82.8665473],[11.543432,82.8285729],[7.3071692,82.7329627],[3.2324382,82.6013841],[-0.9859554,82.4448362],[-4.0111282,82.2804622],[-6.6642728,82.067593],[-8.0522758,81.9028624],[-9.2311834,81.7165866],[-11.331383,81.2323877],[-13.9760703,80.5044349],[-14.7527492,80.2728553],[-15.0441027,80.1240615],[-15.2522124,79.9621385],[-15.6873441,79.4209112],[-16.5429809,78.1035961],[-17.943114,75.7524414],[-19.26547,74.22245],[-19.7903896,73.8329877],[-20.1833247,73.6387884],[-20.6656031,73.4871585],[-23.4971397,72.6129374],[-26.6555703,71.3094382],[-28.8122225,70.3964183],[-30.8803246,69.3730653],[-31.6080823,69.1389619],[-32.8589382,68.8148803],[-34.3740857,68.2315121],[-36.0201849,67.4072349],[-38.2094719,66.732507],[-40.4898352,65.9053266],[-41.544193,65.5017842],[-42.4759544,64.9780603],[-43.2851155,64.3272723],[-43.6529161,63.8990688],[-44.1187967,63.1447834],[-44.6337223,62.732038],[-45.0015228,62.4951816],[-45.406365,62.3749684],[-45.9332842,62.3020529],[-46.2539605,62.2997388],[-46.5716683,62.3134479],[-47.0516975,62.444244],[-47.3904414,62.6162552],[-47.8992931,62.9303767],[-48.3320305,63.2864245],[-49.6011291,64.8088374],[-50.5185858,66.5170368],[-50.6200523,67.1409731],[-50.5358002,67.7469796],[-49.8876983,69.0923843],[-49.805821,70.271908],[-49.9695756,70.8038391],[-50.4608464,71.321952],[-51.1568021,71.9284373],[-51.8045433,72.1750999],[-52.5098301,72.4486578],[-53.5721856,73.1916571],[-54.595652,74.2915546],[-55.9875661,75.2588022],[-56.5607076,75.5680946],[-58.2391922,76.0990545],[-59.5082906,76.4199305],[-60.1318387,76.5626851],[-60.5065813,76.6267015],[-60.9376401,76.6697069]]]}}]}