{"type":"FeatureCollection","features":[{"type":"Feature","properties":{},"geometry":{"type":"Polygon","coordinates":[[[15.2508542,76.3932733],[11.7168458,76.3980924],[8.7108949,76.263615],[5.3657994,75.8757703],[2.5586921,75.4034835],[-22.0875411,70.0666005],[-24.7350716,69.210565],[-26.7285063,68.5598276],[-28.5360068,68.3941018],[-29.760134,68.1450821],[-30.6748664,68.0396818],[-31.8366424,68.0648953],[-33.1096657,67.5053971],[-34.1415635,66.551445],[-35.4637592,66.1615822],[-36.8202292,65.5914361],[-37.6026199,65.5842531],[-38.3153053,65.6171661],[-39.7169414,65.2415787],[-40.0912298,65.0733089],[-40.5351441,64.9653715],[-40.1530053,64.4740954],[-40.4644794,64.1907773],[-40.5267743,63.670651],[-41.1539375,63.147622],[-41.7458232,62.8053559],[-41.9139851,62.6092974],[-42.9518464,60.1369133],[-43.1905344,59.9041159],[-43.8071464,59.7546375],[-44.5180638,59.8567929],[-45.0633627,59.9785415],[-45.4175918,60.1794277],[-45.5916941,60.4238188],[-46.2326469,60.6188575],[-47.0326835,60.7243607],[-47.521328,60.7444756],[-47.8260068,60.6805986],[-48.166957,60.7338383],[-49.8635822,62.0359124],[-51.9252149,64.0438839],[-52.848334,64.084258],[-54.251757,63.9643824],[-58.106099,63.3318185],[-61.7984939,62.6106296],[-63.741846,62.1980264],[-65.3613174,61.7720596],[-67.3046832,61.1921871],[-68.9226518,60.6463832],[-69.1732045,60.5416883],[-69.3915384,60.3953293],[-69.5836722,60.2439751],[-69.6847305,60.0698869],[-69.4352205,59.7373112],[-69.5924209,59.4766238],[-69.5400208,59.3700019],[-69.3097487,59.3129763],[-67.884818,58.4604613],[-66.9473635,58.5583986],[-65.9349127,59.0439992],[-65.6366477,59.4212153],[-65.4909916,59.7896855],[-64.8901606,60.442808],[-64.54748,60.5343179],[-60.5351957,56.0477944],[-57.5728395,54.8354842],[-56.9728687,54.0725188],[-55.5854361,53.22798],[-55.6229342,52.2747673],[-56.3285341,51.7400835],[-58.3107423,51.1165172],[-59.9502767,50.2197485],[-62.1962142,50.1909988],[-64.6892048,50.291547],[-68.0972571,50.1636644],[-70.2167005,49.9625381],[-71.5393142,49.7866832],[-84.3804844,46.8323643],[-86.865376,46.2625849],[-87.9007011,45.955858],[-88.8033593,45.5933454],[-89.4264873,45.2342522],[-90.1420775,44.8832263],[-90.6142512,44.5651912],[-91.0388951,44.1650279],[-91.4273517,43.6591633],[-91.770979,43.2034755],[-91.9778814,42.6965942],[-92.0847331,42.3922581],[-92.1295546,41.9937688],[-92.2007708,40.5897086],[-92.2490828,39.8720802],[-92.109002,39.182085],[-91.8456968,38.5057315],[-91.4019997,37.8186614],[-91.1733934,37.0652874],[-90.7959977,36.2872403],[-90.1574613,35.6576838],[-89.3155498,35.1178284],[-88.1931719,34.6155091],[-86.9464506,34.2269943],[-84.1482537,33.4907959],[-78.8926033,32.0009229],[-76.8255877,31.122425],[-74.7714426,30.0417537],[-70.1496161,26.5763462],[-63.1884438,22.687355],[-56.6050145,19.5651187],[-50.6353349,17.1647649],[-46.1483741,15.7616493],[-37.7196883,13.7393632],[-33.0600136,12.6326852],[-28.9797814,11.8548706],[-24.8593575,11.304688],[-20.7867343,10.8968906],[-16.6279508,10.5321205],[-15.7099419,10.5965811],[-15.164332,10.8133287],[-14.8807904,11.1708118],[-14.8807904,11.5521616],[-15.390501,13.603382],[-14.9386667,16.7579827],[-14.8589314,19.6109906],[-14.0856264,21.695283],[-11.1645271,23.4911148],[-6.4209868,24.9274028],[-2.5265432,26.0489173],[1.4602239,26.9527634],[5.6330402,27.5434867],[10.0436556,27.8262016],[15.3029966,27.8128558],[20.5283289,27.583608],[23.549602,27.3348779],[26.0082546,27.1663919],[28.5643362,26.7244873],[30.8801203,26.1058224],[32.3954685,25.3532292],[33.628567,24.3643979],[36.0684882,21.8768097],[36.8654998,21.4182183],[37.7540216,21.4351438],[38.3744346,21.800743],[38.3316035,22.7111067],[37.6905189,24.7324058],[37.2544551,26.752301],[36.9104185,29.0489644],[36.7872438,30.1473623],[37.0675506,32.4360817],[37.2544351,34.2572895],[37.6740318,35.6818663],[38.1265628,36.716989],[38.8868386,37.805276],[39.7773621,38.7125649],[40.9980193,39.5237225],[42.3937451,39.989041],[44.097413,40.3503008],[45.2203818,40.9975798],[46.073838,41.6385646],[46.3882693,42.7368424],[46.7086927,44.8485659],[47.4706718,45.692273],[48.5919788,45.8877417],[49.4329591,46.4056413],[50.6378497,47.51725],[53.6378545,49.6535635],[55.2575202,50.5327537],[57.260756,51.3747692],[58.2788197,51.725045],[60.42798,52.3952902],[64.1689911,53.3220314],[65.7541872,53.6688824],[67.5918848,53.9997344],[69.5230247,54.3642884],[71.4743144,54.5342313],[89.1313731,55.7669254],[89.8800984,55.8270807],[90.4957337,55.9526221],[91.1113689,56.1713438],[91.4982651,56.4215396],[92.0296678,57.7820412],[92.24933,58.4183192],[92.1814971,59.0931419],[92.0254626,59.3057698],[91.5777641,59.5997089],[91.1673406,59.834893],[90.6229629,59.9668014],[88.8540446,60.133523],[78.6701118,61.005819],[75.7488215,61.2859634],[72.5056729,61.8145332],[69.7318787,62.2944801],[67.2445923,62.9058832],[64.3976592,63.7461415],[61.7092125,64.6195301],[55.9949678,67.1277792],[48.4909535,70.4996074],[40.8652884,73.5160296],[35.7465346,74.9817138],[32.44082,75.6233357],[31.05436,75.8062084],[28.921546,76.025344],[27.0731071,76.1846874],[24.8823994,76.263615],[15.2508542,76.3932733]]]}}]}